[{"OBJECT_NAME":"STARLINK-31888","OBJECT_ID":"2024-093G","EPOCH":"2026-03-09T11:06:43.350336","MEAN_MOTION":15.27559291,"ECCENTRICITY":0.00012047,"INCLINATION":43.0024,"RA_OF_ASC_NODE":209.929,"ARG_OF_PERICENTER":265.3673,"MEAN_ANOMALY":94.7041,"EPHEMERIS_TYPE":0,"CLASSIFICATION_TYPE":"U","NORAD_CAT_ID":59788,"ELEMENT_SET_NO":999,"REV_AT_EPOCH":10266,"BSTAR":-0.00011368532,"MEAN_MOTION_DOT":-3.387e-5,"MEAN_MOTION_DDOT":0},{"OBJECT_NAME":"SIMSAT 2","OBJECT_ID":"2000-026B","EPOCH":"2026-03-09T20:25:01.673184","MEAN_MOTION":15.29036787,"ECCENTRICITY":0.00037035,"INCLINATION":86.3514,"RA_OF_ASC_NODE":176.4271,"ARG_OF_PERICENTER":287.9875,"MEAN_ANOMALY":72.0969,"EPHEMERIS_TYPE":0,"CLASSIFICATION_TYPE":"U","NORAD_CAT_ID":26366,"ELEMENT_SET_NO":999,"REV_AT_EPOCH":42803,"BSTAR":0.00013465771,"MEAN_MOTION_DOT":3.833e-5,"MEAN_MOTION_DDOT":0}]
